{
    "links": {
        "self": "http://www.neowsapp.com/rest/v1/neo/3719727?api_key=iIulBulltgU6a56xZRHN4H3l9WmuAYTsLGpBGhQ2"
    },
    "id": "3719727",
    "neo_reference_id": "3719727",
    "name": "(2015 KX56)",
    "designation": "2015 KX56",
    "nasa_jpl_url": "http://ssd.jpl.nasa.gov/sbdb.cgi?sstr=3719727",
    "absolute_magnitude_h": 25.8,
    "estimated_diameter": {
        "kilometers": {
            "estimated_diameter_min": 0.0183888672,
            "estimated_diameter_max": 0.0411187571
        },
        "meters": {
            "estimated_diameter_min": 18.388867207,
            "estimated_diameter_max": 41.1187571041
        },
        "miles": {
            "estimated_diameter_min": 0.0114263088,
            "estimated_diameter_max": 0.0255500032
        },
        "feet": {
            "estimated_diameter_min": 60.3309310875,
            "estimated_diameter_max": 134.9040630575
        }
    },
    "is_potentially_hazardous_asteroid": false,
    "close_approach_data": [
        {
            "close_approach_date": "2015-05-14",
            "close_approach_date_full": "2015-May-14 08:20",
            "epoch_date_close_approach": 1431591600000,
            "relative_velocity": {
                "kilometers_per_second": "7.8674740701",
                "kilometers_per_hour": "28322.906652518",
                "miles_per_hour": "17598.7527475049"
            },
            "miss_distance": {
                "astronomical": "0.0367443418",
                "lunar": "14.2935489602",
                "kilometers": "5496875.267831966",
                "miles": "3415599.9079584908"
            },
            "orbiting_body": "Earth"
        }
    ],
    "orbital_data": {
        "orbit_id": "5",
        "orbit_determination_date": "2017-04-06 08:33:37",
        "first_observation_date": "2015-05-21",
        "last_observation_date": "2015-05-27",
        "data_arc_in_days": 6,
        "observations_used": 28,
        "orbit_uncertainty": "8",
        "minimum_orbit_intersection": ".0328101",
        "jupiter_tisserand_invariant": "3.647",
        "epoch_osculation": "2457164.5",
        "eccentricity": ".4940234368224283",
        "semi_major_axis": "2.025744938970525",
        "inclination": "6.509340162704288",
        "ascending_node_longitude": "238.0539423172844",
        "orbital_period": "1053.114447224883",
        "perihelion_distance": "1.024979462094666",
        "perihelion_argument": "335.7433617416358",
        "aphelion_distance": "3.026510415846384",
        "perihelion_time": "2457140.781612303588",
        "mean_anomaly": "8.107969265077395",
        "mean_motion": ".341843188030185",
        "equinox": "J2000",
        "orbit_class": {
            "orbit_class_type": "AMO",
            "orbit_class_description": "Near-Earth asteroid orbits similar to that of 1221 Amor",
            "orbit_class_range": "1.017 AU < q (perihelion) < 1.3 AU"
        }
    },
    "is_sentry_object": false
}